CCSDS_OMM_VERS = 2.0
CREATION_DATE  = 
ORIGINATOR     = 

OBJECT_NAME    = SL-16 R/B
OBJECT_ID      = 1998-043G
CENTER_NAME    = EARTH
REF_FRAME      = TEME
TIME_SYSTEM    = UTC
MEAN_ELEMENT_THEORY = SGP/SGP4

EPOCH          = 2026-02-05T19:22:20.028864
MEAN_MOTION    = 14.26042111
ECCENTRICITY   = .0010881
INCLINATION    = 98.8203
RA_OF_ASC_NODE = 349.9556
ARG_OF_PERICENTER = 105.2538
MEAN_ANOMALY   = 254.9845

EPHEMERIS_TYPE = 0
CLASSIFICATION_TYPE = U
NORAD_CAT_ID   = 25400
ELEMENT_SET_NO = 999
REV_AT_EPOCH   = 43444
BSTAR          = .76198E-4
MEAN_MOTION_DOT = .137E-5
MEAN_MOTION_DDOT = 0

CCSDS_OMM_VERS = 2.0
CREATION_DATE  = 
ORIGINATOR     = 

OBJECT_NAME    = SL-16 R/B
OBJECT_ID      = 1998-045B
CENTER_NAME    = EARTH
REF_FRAME      = TEME
TIME_SYSTEM    = UTC
MEAN_ELEMENT_THEORY = SGP/SGP4

EPOCH          = 2026-02-05T18:55:05.671776
MEAN_MOTION    = 14.16185292
ECCENTRICITY   = .0005246
INCLINATION    = 71.0087
RA_OF_ASC_NODE = 248.6622
ARG_OF_PERICENTER = 67.8145
MEAN_ANOMALY   = 292.3534

EPHEMERIS_TYPE = 0
CLASSIFICATION_TYPE = U
NORAD_CAT_ID   = 25407
ELEMENT_SET_NO = 999
REV_AT_EPOCH   = 42258
BSTAR          = -.64691E-4
MEAN_MOTION_DOT = -.176E-5
MEAN_MOTION_DDOT = 0

CCSDS_OMM_VERS = 2.0
CREATION_DATE  = 
ORIGINATOR     = 

OBJECT_NAME    = ISS (ZARYA)
OBJECT_ID      = 1998-067A
CENTER_NAME    = EARTH
REF_FRAME      = TEME
TIME_SYSTEM    = UTC
MEAN_ELEMENT_THEORY = SGP/SGP4

EPOCH          = 2026-02-05T12:03:05.122368
MEAN_MOTION    = 15.48414003
ECCENTRICITY   = .0011155
INCLINATION    = 51.6316
RA_OF_ASC_NODE = 231.4727
ARG_OF_PERICENTER = 67.3664
MEAN_ANOMALY   = 292.8503

EPHEMERIS_TYPE = 0
CLASSIFICATION_TYPE = U
NORAD_CAT_ID   = 25544
ELEMENT_SET_NO = 999
REV_AT_EPOCH   = 55134
BSTAR          = .24571E-3
MEAN_MOTION_DOT = .1286E-3
MEAN_MOTION_DDOT = 0

CCSDS_OMM_VERS = 2.0
CREATION_DATE  = 
ORIGINATOR     = 

OBJECT_NAME    = CZ-4B R/B
OBJECT_ID      = 1999-025C
CENTER_NAME    = EARTH
REF_FRAME      = TEME
TIME_SYSTEM    = UTC
MEAN_ELEMENT_THEORY = SGP/SGP4

EPOCH          = 2026-02-05T13:51:00.163872
MEAN_MOTION    = 14.18258888
ECCENTRICITY   = .0038175
INCLINATION    = 98.6689
RA_OF_ASC_NODE = 81.6100
ARG_OF_PERICENTER = 77.8220
MEAN_ANOMALY   = 40.6722

EPHEMERIS_TYPE = 0
CLASSIFICATION_TYPE = U
NORAD_CAT_ID   = 25732
ELEMENT_SET_NO = 999
REV_AT_EPOCH   = 38361
BSTAR          = .55532E-4
MEAN_MOTION_DOT = .72E-6
MEAN_MOTION_DDOT = 0

CCSDS_OMM_VERS = 2.0
CREATION_DATE  = 
ORIGINATOR     = 

OBJECT_NAME    = OKEAN-O
OBJECT_ID      = 1999-039A
CENTER_NAME    = EARTH
REF_FRAME      = TEME
TIME_SYSTEM    = UTC
MEAN_ELEMENT_THEORY = SGP/SGP4

EPOCH          = 2026-02-05T17:56:07.913184
MEAN_MOTION    = 14.80282771
ECCENTRICITY   = .0001928
INCLINATION    = 97.9511
RA_OF_ASC_NODE = 96.9523
ARG_OF_PERICENTER = 88.6395
MEAN_ANOMALY   = 271.5038

EPHEMERIS_TYPE = 0
CLASSIFICATION_TYPE = U
NORAD_CAT_ID   = 25860
ELEMENT_SET_NO = 999
REV_AT_EPOCH   = 42966
BSTAR          = .15056E-3
MEAN_MOTION_DOT = .1094E-4
MEAN_MOTION_DDOT = 0

CCSDS_OMM_VERS = 2.0
CREATION_DATE  = 
ORIGINATOR     = 

OBJECT_NAME    = SL-16 R/B
OBJECT_ID      = 1999-039B
CENTER_NAME    = EARTH
REF_FRAME      = TEME
TIME_SYSTEM    = UTC
MEAN_ELEMENT_THEORY = SGP/SGP4

EPOCH          = 2026-02-05T18:10:38.007840
MEAN_MOTION    = 14.81686363
ECCENTRICITY   = .0014871
INCLINATION    = 98.0033
RA_OF_ASC_NODE = 95.8900
ARG_OF_PERICENTER = 6.5470
MEAN_ANOMALY   = 353.5934

EPHEMERIS_TYPE = 0
CLASSIFICATION_TYPE = U
NORAD_CAT_ID   = 25861
ELEMENT_SET_NO = 999
REV_AT_EPOCH   = 43213
BSTAR          = .12376E-3
MEAN_MOTION_DOT = .922E-5
MEAN_MOTION_DDOT = 0

CCSDS_OMM_VERS = 2.0
CREATION_DATE  = 
ORIGINATOR     = 

OBJECT_NAME    = DELTA 2 R/B
OBJECT_ID      = 1999-041E
CENTER_NAME    = EARTH
REF_FRAME      = TEME
TIME_SYSTEM    = UTC
MEAN_ELEMENT_THEORY = SGP/SGP4

EPOCH          = 2026-02-05T12:19:52.871232
MEAN_MOTION    = 14.11705587
ECCENTRICITY   = .05024
INCLINATION    = 51.7643
RA_OF_ASC_NODE = 69.7686
ARG_OF_PERICENTER = 253.3695
MEAN_ANOMALY   = 101.1518

EPHEMERIS_TYPE = 0
CLASSIFICATION_TYPE = U
NORAD_CAT_ID   = 25876
ELEMENT_SET_NO = 999
REV_AT_EPOCH   = 35848
BSTAR          = .53163E-3
MEAN_MOTION_DOT = .3074E-4
MEAN_MOTION_DDOT = 0

CCSDS_OMM_VERS = 2.0
CREATION_DATE  = 
ORIGINATOR     = 

OBJECT_NAME    = HELIOS 1B
OBJECT_ID      = 1999-064A
CENTER_NAME    = EARTH
REF_FRAME      = TEME
TIME_SYSTEM    = UTC
MEAN_ELEMENT_THEORY = SGP/SGP4

EPOCH          = 2026-02-05T16:43:51.656160
MEAN_MOTION    = 14.87565115
ECCENTRICITY   = .0001923
INCLINATION    = 98.1728
RA_OF_ASC_NODE = 297.9960
ARG_OF_PERICENTER = 119.9221
MEAN_ANOMALY   = 240.2185

EPHEMERIS_TYPE = 0
CLASSIFICATION_TYPE = U
NORAD_CAT_ID   = 25977
ELEMENT_SET_NO = 999
REV_AT_EPOCH   = 68050
BSTAR          = .31723E-3
MEAN_MOTION_DOT = .2822E-4
MEAN_MOTION_DDOT = 0

CCSDS_OMM_VERS = 2.0
CREATION_DATE  = 
ORIGINATOR     = 

OBJECT_NAME    = TERRA
OBJECT_ID      = 1999-068A
CENTER_NAME    = EARTH
REF_FRAME      = TEME
TIME_SYSTEM    = UTC
MEAN_ELEMENT_THEORY = SGP/SGP4

EPOCH          = 2026-02-05T19:20:28.692960
MEAN_MOTION    = 14.60979965
ECCENTRICITY   = .0000967
INCLINATION    = 97.9660
RA_OF_ASC_NODE = 91.4476
ARG_OF_PERICENTER = 294.1012
MEAN_ANOMALY   = 157.2724

EPHEMERIS_TYPE = 0
CLASSIFICATION_TYPE = U
NORAD_CAT_ID   = 25994
ELEMENT_SET_NO = 999
REV_AT_EPOCH   = 39042
BSTAR          = .15294E-3
MEAN_MOTION_DOT = .705E-5
MEAN_MOTION_DDOT = 0

CCSDS_OMM_VERS = 2.0
CREATION_DATE  = 
ORIGINATOR     = 

OBJECT_NAME    = SL-16 R/B
OBJECT_ID      = 2000-006B
CENTER_NAME    = EARTH
REF_FRAME      = TEME
TIME_SYSTEM    = UTC
MEAN_ELEMENT_THEORY = SGP/SGP4

EPOCH          = 2026-02-05T19:05:19.745952
MEAN_MOTION    = 14.15820747
ECCENTRICITY   = .0018445
INCLINATION    = 71.0028
RA_OF_ASC_NODE = 164.8979
ARG_OF_PERICENTER = 234.9444
MEAN_ANOMALY   = 124.9950

EPHEMERIS_TYPE = 0
CLASSIFICATION_TYPE = U
NORAD_CAT_ID   = 26070
ELEMENT_SET_NO = 999
REV_AT_EPOCH   = 34404
BSTAR          = .51189E-4
MEAN_MOTION_DOT = .53E-6
MEAN_MOTION_DDOT = 0

CCSDS_OMM_VERS = 2.0
CREATION_DATE  = 
ORIGINATOR     = 

OBJECT_NAME    = TITAN 4B R/B
OBJECT_ID      = 2000-047B
CENTER_NAME    = EARTH
REF_FRAME      = TEME
TIME_SYSTEM    = UTC
MEAN_ELEMENT_THEORY = SGP/SGP4

EPOCH          = 2026-02-05T18:10:12.410112
MEAN_MOTION    = 15.09296772
ECCENTRICITY   = .0036943
INCLINATION    = 67.9896
RA_OF_ASC_NODE = 130.2855
ARG_OF_PERICENTER = 74.7641
MEAN_ANOMALY   = 285.7588

EPHEMERIS_TYPE = 0
CLASSIFICATION_TYPE = U
NORAD_CAT_ID   = 26474
ELEMENT_SET_NO = 999
REV_AT_EPOCH   = 38809
BSTAR          = .36853E-3
MEAN_MOTION_DOT = .5851E-4
MEAN_MOTION_DDOT = 0

CCSDS_OMM_VERS = 2.0
CREATION_DATE  = 
ORIGINATOR     = 

OBJECT_NAME    = ENVISAT
OBJECT_ID      = 2002-009A
CENTER_NAME    = EARTH
REF_FRAME      = TEME
TIME_SYSTEM    = UTC
MEAN_ELEMENT_THEORY = SGP/SGP4

EPOCH          = 2026-02-05T21:45:55.231200
MEAN_MOTION    = 14.39024995
ECCENTRICITY   = .00013
INCLINATION    = 98.3676
RA_OF_ASC_NODE = 351.2720
ARG_OF_PERICENTER = 91.0521
MEAN_ANOMALY   = 336.4663

EPHEMERIS_TYPE = 0
CLASSIFICATION_TYPE = U
NORAD_CAT_ID   = 27386
ELEMENT_SET_NO = 999
REV_AT_EPOCH   = 25460
BSTAR          = .8933E-4
MEAN_MOTION_DOT = .233E-5
MEAN_MOTION_DDOT = 0

