SL-16 R/B               
1 25400U 98043G   26036.80717626  .00000137  00000+0  76198-4 0  9994
2 25400  98.8203 349.9556 0010881 105.2538 254.9845 14.26042111434444
SL-16 R/B               
1 25407U 98045B   26036.78826009 -.00000176  00000+0 -64691-4 0  9996
2 25407  71.0087 248.6622 0005246  67.8145 292.3534 14.16185292422589
ISS (ZARYA)             
1 25544U 98067A   26036.50214262  .00012860  00000+0  24571-3 0  9997
2 25544  51.6316 231.4727 0011155  67.3664 292.8503 15.48414003551342
CZ-4B R/B               
1 25732U 99025C   26036.57708523  .00000072  00000+0  55532-4 0  9990
2 25732  98.6689  81.6100 0038175  77.8220  40.6722 14.18258888383618
OKEAN-O                 
1 25860U 99039A   26036.74731381  .00001094  00000+0  15056-3 0  9995
2 25860  97.9511  96.9523 0001928  88.6395 271.5038 14.80282771429661
SL-16 R/B               
1 25861U 99039B   26036.75738435  .00000922  00000+0  12376-3 0  9995
2 25861  98.0033  95.8900 0014871   6.5470 353.5934 14.81686363432132
DELTA 2 R/B             
1 25876U 99041E   26036.51380638  .00003074  00000+0  53163-3 0  9996
2 25876  51.7643  69.7686 0502400 253.3695 101.1518 14.11705587358486
HELIOS 1B               
1 25977U 99064A   26036.69712565  .00002822  00000+0  31723-3 0  9998
2 25977  98.1728 297.9960 0001923 119.9221 240.2185 14.87565115680503
TERRA                   
1 25994U 99068A   26036.80588765  .00000705  00000+0  15294-3 0  9990
2 25994  97.9660  91.4476 0000967 294.1012 157.2724 14.60979965390422
SL-16 R/B               
1 26070U 00006B   26036.79536743  .00000053  00000+0  51189-4 0  9997
2 26070  71.0028 164.8979 0018445 234.9444 124.9950 14.15820747344045
TITAN 4B R/B            
1 26474U 00047B   26036.75708808  .00005851  00000+0  36853-3 0  9990
2 26474  67.9896 130.2855 0036943  74.7641 285.7588 15.09296772388097
ENVISAT                 
1 27386U 02009A   26036.90688925  .00000233  00000+0  89330-4 0  9995
2 27386  98.3676 351.2720 0001300  91.0521 336.4663 14.39024995254603
